{
  "type": "FeatureCollection",
  "metadata": {
    "generated_at": "2026-07-06T02:14:38.095198+00:00",
    "sources": {
      "USA": "NIFC WFIGS \u2014 https://data-nifc.opendata.arcgis.com/",
      "Mexico": "CONAFOR SNIGF \u2014 https://snigf.cnf.gob.mx/"
    },
    "description": "Active wildfire perimeter polygons. Each polygon represents the confirmed burned area boundary of an active or recently contained fire. Area in hectares and acres provided.",
    "total_fires": 0,
    "total_hectares": 0,
    "usa_fires": 0,
    "mexico_fires": 0
  },
  "features": []
}