{
  "type": "FeatureCollection",
  "metadata": {
    "generated_at": "2026-10-02T15:45:05.708130+00:00",
    "source": "Open-Meteo API (https://open-meteo.com/)",
    "description": "Current meteorological conditions at global grid points.",
    "grid_step_deg": 10.0,
    "total_points": 147,
    "errors": 0
  },
  "features": [
    {
      "type": "Feature",
      "geometry": {
        "type": "Point",
        "coordinates": [
          -70.0,
          -50.0
        ]
      },
      "properties": {
        "temp_c": 12.4,
        "rh_pct": 61,
        "wind_kmh": 8.5,
        "wind_dir_deg": 324,
        "rain_mm": 0.0,
        "fetched_at": "2026-10-02T15:45:05.702701+00:00"
      }
    },
    {
      "type": "Feature",
      "geometry": {
        "type": "Point",
        "coordinates": [
          -70.0,
          -40.0
        ]
      },
      "properties": {
        "temp_c": 15.2,
        "rh_pct": 57,
        "wind_kmh": 10.7,
        "wind_dir_deg": 314,
        "rain_mm": 0.1,
        "fetched_at": "2026-10-02T15:45:05.702801+00:00"
      }
    },
    {
      "type": "Feature",
      "geometry": {
        "type": "Point",
        "coordinates": [
          -70.0,
          -30.0
        ]
      },
      "properties": {
        "temp_c": -3.1,
        "rh_pct": 89,
        "wind_kmh": 8.7,
        "wind_dir_deg": 246,
        "rain_mm": 0.2,
        "fetched_at": "2026-10-02T15:45:05.702846+00:00"
      }
    },
    {
      "type": "Feature",
      "geometry": {
        "type": "Point",
        "coordinates": [
          -60.0,
          -30.0
        ]
      },
      "properties": {
        "temp_c": 19.8,
        "rh_pct": 56,
        "wind_kmh": 12.6,
        "wind_dir_deg": 47,
        "rain_mm": 0.0,
        "fetched_at": "2026-10-02T15:45:05.702927+00:00"
      }
    },
    {
      "type": "Feature",
      "geometry": {
        "type": "Point",
        "coordinates": [
          20.0,
          -30.0
        ]
      },
      "properties": {
        "temp_c": 25.3,
        "rh_pct": 33,
        "wind_kmh": 27.2,
        "wind_dir_deg": 302,
        "rain_mm": 0.0,
        "fetched_at": "2026-10-02T15:45:05.702972+00:00"
      }
    },
    {
      "type": "Feature",
      "geometry": {
        "type": "Point",
        "coordinates": [
          30.0,
          -30.0
        ]
      },
      "properties": {
        "temp_c": 14.3,
        "rh_pct": 78,
        "wind_kmh": 6.7,
        "wind_dir_deg": 128,
        "rain_mm": 0.0,
        "fetched_at": "2026-10-02T15:45:05.703013+00:00"
      }
    },
    {
      "type": "Feature",
      "geometry": {
        "type": "Point",
        "coordinates": [
          120.0,
          -30.0
        ]
      },
      "properties": {
        "temp_c": 13.3,
        "rh_pct": 71,
        "wind_kmh": 14.0,
        "wind_dir_deg": 97,
        "rain_mm": 0.0,
        "fetched_at": "2026-10-02T15:45:05.703052+00:00"
      }
    },
    {
      "type": "Feature",
      "geometry": {
        "type": "Point",
        "coordinates": [
          130.0,
          -30.0
        ]
      },
      "properties": {
        "temp_c": 13.2,
        "rh_pct": 64,
        "wind_kmh": 18.3,
        "wind_dir_deg": 124,
        "rain_mm": 0.0,
        "fetched_at": "2026-10-02T15:45:05.703089+00:00"
      }
    },
    {
      "type": "Feature",
      "geometry": {
        "type": "Point",
        "coordinates": [
          140.0,
          -30.0
        ]
      },
      "properties": {
        "temp_c": 14.2,
        "rh_pct": 67,
        "wind_kmh": 20.1,
        "wind_dir_deg": 192,
        "rain_mm": 0.0,
        "fetched_at": "2026-10-02T15:45:05.703128+00:00"
      }
    },
    {
      "type": "Feature",
      "geometry": {
        "type": "Point",
        "coordinates": [
          150.0,
          -30.0
        ]
      },
      "properties": {
        "temp_c": 18.5,
        "rh_pct": 42,
        "wind_kmh": 12.0,
        "wind_dir_deg": 81,
        "rain_mm": 0.0,
        "fetched_at": "2026-10-02T15:45:05.703166+00:00"
      }
    },
    {
      "type": "Feature",
      "geometry": {
        "type": "Point",
        "coordinates": [
          -70.0,
          -20.0
        ]
      },
      "properties": {
        "temp_c": 16.7,
        "rh_pct": 79,
        "wind_kmh": 10.7,
        "wind_dir_deg": 265,
        "rain_mm": 0.0,
        "fetched_at": "2026-10-02T15:45:05.703199+00:00"
      }
    },
    {
      "type": "Feature",
      "geometry": {
        "type": "Point",
        "coordinates": [
          -60.0,
          -20.0
        ]
      },
      "properties": {
        "temp_c": 30.8,
        "rh_pct": 48,
        "wind_kmh": 8.2,
        "wind_dir_deg": 80,
        "rain_mm": 0.0,
        "fetched_at": "2026-10-02T15:45:05.703239+00:00"
      }
    },
    {
      "type": "Feature",
      "geometry": {
        "type": "Point",
        "coordinates": [
          -50.0,
          -20.0
        ]
      },
      "properties": {
        "temp_c": 25.0,
        "rh_pct": 69,
        "wind_kmh": 7.9,
        "wind_dir_deg": 339,
        "rain_mm": 0.1,
        "fetched_at": "2026-10-02T15:45:05.703275+00:00"
      }
    },
    {
      "type": "Feature",
      "geometry": {
        "type": "Point",
        "coordinates": [
          20.0,
          -20.0
        ]
      },
      "properties": {
        "temp_c": 26.0,
        "rh_pct": 25,
        "wind_kmh": 10.6,
        "wind_dir_deg": 93,
        "rain_mm": 0.0,
        "fetched_at": "2026-10-02T15:45:05.703308+00:00"
      }
    },
    {
      "type": "Feature",
      "geometry": {
        "type": "Point",
        "coordinates": [
          30.0,
          -20.0
        ]
      },
      "properties": {
        "temp_c": 15.2,
        "rh_pct": 75,
        "wind_kmh": 11.0,
        "wind_dir_deg": 140,
        "rain_mm": 0.0,
        "fetched_at": "2026-10-02T15:45:05.703348+00:00"
      }
    },
    {
      "type": "Feature",
      "geometry": {
        "type": "Point",
        "coordinates": [
          120.0,
          -20.0
        ]
      },
      "properties": {
        "temp_c": 24.6,
        "rh_pct": 64,
        "wind_kmh": 11.5,
        "wind_dir_deg": 266,
        "rain_mm": 0.0,
        "fetched_at": "2026-10-02T15:45:05.703382+00:00"
      }
    },
    {
      "type": "Feature",
      "geometry": {
        "type": "Point",
        "coordinates": [
          130.0,
          -20.0
        ]
      },
      "properties": {
        "temp_c": 24.8,
        "rh_pct": 44,
        "wind_kmh": 13.0,
        "wind_dir_deg": 55,
        "rain_mm": 0.0,
        "fetched_at": "2026-10-02T15:45:05.703417+00:00"
      }
    },
    {
      "type": "Feature",
      "geometry": {
        "type": "Point",
        "coordinates": [
          140.0,
          -20.0
        ]
      },
      "properties": {
        "temp_c": 22.3,
        "rh_pct": 24,
        "wind_kmh": 8.4,
        "wind_dir_deg": 140,
        "rain_mm": 0.0,
        "fetched_at": "2026-10-02T15:45:05.703452+00:00"
      }
    },
    {
      "type": "Feature",
      "geometry": {
        "type": "Point",
        "coordinates": [
          -70.0,
          -10.0
        ]
      },
      "properties": {
        "temp_c": 30.5,
        "rh_pct": 57,
        "wind_kmh": 1.5,
        "wind_dir_deg": 69,
        "rain_mm": 0.0,
        "fetched_at": "2026-10-02T15:45:05.703485+00:00"
      }
    },
    {
      "type": "Feature",
      "geometry": {
        "type": "Point",
        "coordinates": [
          -60.0,
          -10.0
        ]
      },
      "properties": {
        "temp_c": 29.5,
        "rh_pct": 64,
        "wind_kmh": 7.5,
        "wind_dir_deg": 156,
        "rain_mm": 0.0,
        "fetched_at": "2026-10-02T15:45:05.703519+00:00"
      }
    },
    {
      "type": "Feature",
      "geometry": {
        "type": "Point",
        "coordinates": [
          -50.0,
          -10.0
        ]
      },
      "properties": {
        "temp_c": 27.1,
        "rh_pct": 80,
        "wind_kmh": 11.2,
        "wind_dir_deg": 237,
        "rain_mm": 0.0,
        "fetched_at": "2026-10-02T15:45:05.703553+00:00"
      }
    },
    {
      "type": "Feature",
      "geometry": {
        "type": "Point",
        "coordinates": [
          -40.0,
          -10.0
        ]
      },
      "properties": {
        "temp_c": 35.4,
        "rh_pct": 26,
        "wind_kmh": 9.7,
        "wind_dir_deg": 89,
        "rain_mm": 0.0,
        "fetched_at": "2026-10-02T15:45:05.703605+00:00"
      }
    },
    {
      "type": "Feature",
      "geometry": {
        "type": "Point",
        "coordinates": [
          20.0,
          -10.0
        ]
      },
      "properties": {
        "temp_c": 28.1,
        "rh_pct": 51,
        "wind_kmh": 4.9,
        "wind_dir_deg": 114,
        "rain_mm": 0.0,
        "fetched_at": "2026-10-02T15:45:05.703637+00:00"
      }
    },
    {
      "type": "Feature",
      "geometry": {
        "type": "Point",
        "coordinates": [
          30.0,
          -10.0
        ]
      },
      "properties": {
        "temp_c": 20.1,
        "rh_pct": 87,
        "wind_kmh": 5.8,
        "wind_dir_deg": 158,
        "rain_mm": 0.0,
        "fetched_at": "2026-10-02T15:45:05.703672+00:00"
      }
    },
    {
      "type": "Feature",
      "geometry": {
        "type": "Point",
        "coordinates": [
          120.0,
          -10.0
        ]
      },
      "properties": {
        "temp_c": 23.1,
        "rh_pct": 88,
        "wind_kmh": 3.3,
        "wind_dir_deg": 61,
        "rain_mm": 0.0,
        "fetched_at": "2026-10-02T15:45:05.703709+00:00"
      }
    },
    {
      "type": "Feature",
      "geometry": {
        "type": "Point",
        "coordinates": [
          150.0,
          -10.0
        ]
      },
      "properties": {
        "temp_c": 22.1,
        "rh_pct": 85,
        "wind_kmh": 4.5,
        "wind_dir_deg": 164,
        "rain_mm": 0.0,
        "fetched_at": "2026-10-02T15:45:05.703743+00:00"
      }
    },
    {
      "type": "Feature",
      "geometry": {
        "type": "Point",
        "coordinates": [
          -80.0,
          0.0
        ]
      },
      "properties": {
        "temp_c": 23.2,
        "rh_pct": 97,
        "wind_kmh": 4.3,
        "wind_dir_deg": 298,
        "rain_mm": 0.4,
        "fetched_at": "2026-10-02T15:45:05.703780+00:00"
      }
    },
    {
      "type": "Feature",
      "geometry": {
        "type": "Point",
        "coordinates": [
          -70.0,
          0.0
        ]
      },
      "properties": {
        "temp_c": 26.0,
        "rh_pct": 88,
        "wind_kmh": 5.2,
        "wind_dir_deg": 14,
        "rain_mm": 0.0,
        "fetched_at": "2026-10-02T15:45:05.703817+00:00"
      }
    },
    {
      "type": "Feature",
      "geometry": {
        "type": "Point",
        "coordinates": [
          -60.0,
          0.0
        ]
      },
      "properties": {
        "temp_c": 34.9,
        "rh_pct": 43,
        "wind_kmh": 9.6,
        "wind_dir_deg": 82,
        "rain_mm": 0.0,
        "fetched_at": "2026-10-02T15:45:05.703877+00:00"
      }
    },
    {
      "type": "Feature",
      "geometry": {
        "type": "Point",
        "coordinates": [
          10.0,
          0.0
        ]
      },
      "properties": {
        "temp_c": 28.1,
        "rh_pct": 72,
        "wind_kmh": 12.1,
        "wind_dir_deg": 290,
        "rain_mm": 0.1,
        "fetched_at": "2026-10-02T15:45:05.703920+00:00"
      }
    },
    {
      "type": "Feature",
      "geometry": {
        "type": "Point",
        "coordinates": [
          20.0,
          0.0
        ]
      },
      "properties": {
        "temp_c": 27.0,
        "rh_pct": 85,
        "wind_kmh": 3.2,
        "wind_dir_deg": 313,
        "rain_mm": 0.0,
        "fetched_at": "2026-10-02T15:45:05.703957+00:00"
      }
    },
    {
      "type": "Feature",
      "geometry": {
        "type": "Point",
        "coordinates": [
          30.0,
          0.0
        ]
      },
      "properties": {
        "temp_c": 25.0,
        "rh_pct": 64,
        "wind_kmh": 12.4,
        "wind_dir_deg": 48,
        "rain_mm": 0.1,
        "fetched_at": "2026-10-02T15:45:05.703990+00:00"
      }
    },
    {
      "type": "Feature",
      "geometry": {
        "type": "Point",
        "coordinates": [
          40.0,
          0.0
        ]
      },
      "properties": {
        "temp_c": 31.4,
        "rh_pct": 40,
        "wind_kmh": 13.8,
        "wind_dir_deg": 132,
        "rain_mm": 0.0,
        "fetched_at": "2026-10-02T15:45:05.704023+00:00"
      }
    },
    {
      "type": "Feature",
      "geometry": {
        "type": "Point",
        "coordinates": [
          100.0,
          0.0
        ]
      },
      "properties": {
        "temp_c": 22.2,
        "rh_pct": 98,
        "wind_kmh": 1.7,
        "wind_dir_deg": 13,
        "rain_mm": 0.1,
        "fetched_at": "2026-10-02T15:45:05.704055+00:00"
      }
    },
    {
      "type": "Feature",
      "geometry": {
        "type": "Point",
        "coordinates": [
          110.0,
          0.0
        ]
      },
      "properties": {
        "temp_c": 25.0,
        "rh_pct": 96,
        "wind_kmh": 2.6,
        "wind_dir_deg": 335,
        "rain_mm": 0.0,
        "fetched_at": "2026-10-02T15:45:05.704090+00:00"
      }
    },
    {
      "type": "Feature",
      "geometry": {
        "type": "Point",
        "coordinates": [
          120.0,
          0.0
        ]
      },
      "properties": {
        "temp_c": 22.1,
        "rh_pct": 96,
        "wind_kmh": 4.2,
        "wind_dir_deg": 97,
        "rain_mm": 0.0,
        "fetched_at": "2026-10-02T15:45:05.704121+00:00"
      }
    },
    {
      "type": "Feature",
      "geometry": {
        "type": "Point",
        "coordinates": [
          -70.0,
          10.0
        ]
      },
      "properties": {
        "temp_c": 32.0,
        "rh_pct": 38,
        "wind_kmh": 19.0,
        "wind_dir_deg": 133,
        "rain_mm": 0.0,
        "fetched_at": "2026-10-02T15:45:05.704155+00:00"
      }
    },
    {
      "type": "Feature",
      "geometry": {
        "type": "Point",
        "coordinates": [
          -10.0,
          10.0
        ]
      },
      "properties": {
        "temp_c": 27.1,
        "rh_pct": 77,
        "wind_kmh": 6.9,
        "wind_dir_deg": 265,
        "rain_mm": 0.1,
        "fetched_at": "2026-10-02T15:45:05.704188+00:00"
      }
    },
    {
      "type": "Feature",
      "geometry": {
        "type": "Point",
        "coordinates": [
          0.0,
          10.0
        ]
      },
      "properties": {
        "temp_c": 28.9,
        "rh_pct": 74,
        "wind_kmh": 11.2,
        "wind_dir_deg": 273,
        "rain_mm": 0.0,
        "fetched_at": "2026-10-02T15:45:05.704220+00:00"
      }
    },
    {
      "type": "Feature",
      "geometry": {
        "type": "Point",
        "coordinates": [
          10.0,
          10.0
        ]
      },
      "properties": {
        "temp_c": 26.5,
        "rh_pct": 82,
        "wind_kmh": 10.1,
        "wind_dir_deg": 59,
        "rain_mm": 0.5,
        "fetched_at": "2026-10-02T15:45:05.704252+00:00"
      }
    },
    {
      "type": "Feature",
      "geometry": {
        "type": "Point",
        "coordinates": [
          20.0,
          10.0
        ]
      },
      "properties": {
        "temp_c": 29.5,
        "rh_pct": 64,
        "wind_kmh": 4.8,
        "wind_dir_deg": 101,
        "rain_mm": 0.0,
        "fetched_at": "2026-10-02T15:45:05.704284+00:00"
      }
    },
    {
      "type": "Feature",
      "geometry": {
        "type": "Point",
        "coordinates": [
          30.0,
          10.0
        ]
      },
      "properties": {
        "temp_c": 32.6,
        "rh_pct": 44,
        "wind_kmh": 9.8,
        "wind_dir_deg": 210,
        "rain_mm": 0.0,
        "fetched_at": "2026-10-02T15:45:05.704317+00:00"
      }
    },
    {
      "type": "Feature",
      "geometry": {
        "type": "Point",
        "coordinates": [
          40.0,
          10.0
        ]
      },
      "properties": {
        "temp_c": 29.0,
        "rh_pct": 19,
        "wind_kmh": 13.4,
        "wind_dir_deg": 31,
        "rain_mm": 0.0,
        "fetched_at": "2026-10-02T15:45:05.704381+00:00"
      }
    },
    {
      "type": "Feature",
      "geometry": {
        "type": "Point",
        "coordinates": [
          50.0,
          10.0
        ]
      },
      "properties": {
        "temp_c": 23.7,
        "rh_pct": 83,
        "wind_kmh": 20.5,
        "wind_dir_deg": 119,
        "rain_mm": 0.0,
        "fetched_at": "2026-10-02T15:45:05.704417+00:00"
      }
    },
    {
      "type": "Feature",
      "geometry": {
        "type": "Point",
        "coordinates": [
          -100.0,
          20.0
        ]
      },
      "properties": {
        "temp_c": 15.1,
        "rh_pct": 76,
        "wind_kmh": 3.0,
        "wind_dir_deg": 128,
        "rain_mm": 0.0,
        "fetched_at": "2026-10-02T15:45:05.704449+00:00"
      }
    },
    {
      "type": "Feature",
      "geometry": {
        "type": "Point",
        "coordinates": [
          -90.0,
          20.0
        ]
      },
      "properties": {
        "temp_c": 28.7,
        "rh_pct": 78,
        "wind_kmh": 10.2,
        "wind_dir_deg": 129,
        "rain_mm": 0.0,
        "fetched_at": "2026-10-02T15:45:05.704483+00:00"
      }
    },
    {
      "type": "Feature",
      "geometry": {
        "type": "Point",
        "coordinates": [
          -10.0,
          20.0
        ]
      },
      "properties": {
        "temp_c": 38.7,
        "rh_pct": 16,
        "wind_kmh": 13.2,
        "wind_dir_deg": 93,
        "rain_mm": 0.0,
        "fetched_at": "2026-10-02T15:45:05.704517+00:00"
      }
    },
    {
      "type": "Feature",
      "geometry": {
        "type": "Point",
        "coordinates": [
          0.0,
          20.0
        ]
      },
      "properties": {
        "temp_c": 34.4,
        "rh_pct": 27,
        "wind_kmh": 9.2,
        "wind_dir_deg": 197,
        "rain_mm": 0.1,
        "fetched_at": "2026-10-02T15:45:05.704551+00:00"
      }
    },
    {
      "type": "Feature",
      "geometry": {
        "type": "Point",
        "coordinates": [
          10.0,
          20.0
        ]
      },
      "properties": {
        "temp_c": 33.8,
        "rh_pct": 18,
        "wind_kmh": 20.3,
        "wind_dir_deg": 48,
        "rain_mm": 0.0,
        "fetched_at": "2026-10-02T15:45:05.704582+00:00"
      }
    },
    {
      "type": "Feature",
      "geometry": {
        "type": "Point",
        "coordinates": [
          20.0,
          20.0
        ]
      },
      "properties": {
        "temp_c": 30.3,
        "rh_pct": 34,
        "wind_kmh": 32.0,
        "wind_dir_deg": 12,
        "rain_mm": 0.0,
        "fetched_at": "2026-10-02T15:45:05.704614+00:00"
      }
    },
    {
      "type": "Feature",
      "geometry": {
        "type": "Point",
        "coordinates": [
          30.0,
          20.0
        ]
      },
      "properties": {
        "temp_c": 39.6,
        "rh_pct": 15,
        "wind_kmh": 16.3,
        "wind_dir_deg": 65,
        "rain_mm": 0.0,
        "fetched_at": "2026-10-02T15:45:05.704653+00:00"
      }
    },
    {
      "type": "Feature",
      "geometry": {
        "type": "Point",
        "coordinates": [
          50.0,
          20.0
        ]
      },
      "properties": {
        "temp_c": 36.2,
        "rh_pct": 14,
        "wind_kmh": 10.6,
        "wind_dir_deg": 118,
        "rain_mm": 0.0,
        "fetched_at": "2026-10-02T15:45:05.704687+00:00"
      }
    },
    {
      "type": "Feature",
      "geometry": {
        "type": "Point",
        "coordinates": [
          80.0,
          20.0
        ]
      },
      "properties": {
        "temp_c": 25.8,
        "rh_pct": 76,
        "wind_kmh": 3.8,
        "wind_dir_deg": 73,
        "rain_mm": 0.0,
        "fetched_at": "2026-10-02T15:45:05.704717+00:00"
      }
    },
    {
      "type": "Feature",
      "geometry": {
        "type": "Point",
        "coordinates": [
          100.0,
          20.0
        ]
      },
      "properties": {
        "temp_c": 26.4,
        "rh_pct": 85,
        "wind_kmh": 5.2,
        "wind_dir_deg": 209,
        "rain_mm": 0.0,
        "fetched_at": "2026-10-02T15:45:05.704758+00:00"
      }
    },
    {
      "type": "Feature",
      "geometry": {
        "type": "Point",
        "coordinates": [
          110.0,
          20.0
        ]
      },
      "properties": {
        "temp_c": 27.7,
        "rh_pct": 94,
        "wind_kmh": 4.6,
        "wind_dir_deg": 149,
        "rain_mm": 0.0,
        "fetched_at": "2026-10-02T15:45:05.704789+00:00"
      }
    },
    {
      "type": "Feature",
      "geometry": {
        "type": "Point",
        "coordinates": [
          -110.0,
          30.0
        ]
      },
      "properties": {
        "temp_c": 21.7,
        "rh_pct": 50,
        "wind_kmh": 11.2,
        "wind_dir_deg": 350,
        "rain_mm": 0.0,
        "fetched_at": "2026-10-02T15:45:05.704820+00:00"
      }
    },
    {
      "type": "Feature",
      "geometry": {
        "type": "Point",
        "coordinates": [
          -100.0,
          30.0
        ]
      },
      "properties": {
        "temp_c": 23.1,
        "rh_pct": 69,
        "wind_kmh": 22.0,
        "wind_dir_deg": 359,
        "rain_mm": 0.0,
        "fetched_at": "2026-10-02T15:45:05.704874+00:00"
      }
    },
    {
      "type": "Feature",
      "geometry": {
        "type": "Point",
        "coordinates": [
          -90.0,
          30.0
        ]
      },
      "properties": {
        "temp_c": 30.4,
        "rh_pct": 63,
        "wind_kmh": 13.7,
        "wind_dir_deg": 96,
        "rain_mm": 0.0,
        "fetched_at": "2026-10-02T15:45:05.704909+00:00"
      }
    },
    {
      "type": "Feature",
      "geometry": {
        "type": "Point",
        "coordinates": [
          0.0,
          30.0
        ]
      },
      "properties": {
        "temp_c": 32.4,
        "rh_pct": 20,
        "wind_kmh": 20.5,
        "wind_dir_deg": 72,
        "rain_mm": 0.0,
        "fetched_at": "2026-10-02T15:45:05.704941+00:00"
      }
    },
    {
      "type": "Feature",
      "geometry": {
        "type": "Point",
        "coordinates": [
          10.0,
          30.0
        ]
      },
      "properties": {
        "temp_c": 29.4,
        "rh_pct": 26,
        "wind_kmh": 13.6,
        "wind_dir_deg": 53,
        "rain_mm": 0.0,
        "fetched_at": "2026-10-02T15:45:05.704973+00:00"
      }
    },
    {
      "type": "Feature",
      "geometry": {
        "type": "Point",
        "coordinates": [
          20.0,
          30.0
        ]
      },
      "properties": {
        "temp_c": 26.8,
        "rh_pct": 36,
        "wind_kmh": 14.5,
        "wind_dir_deg": 354,
        "rain_mm": 0.0,
        "fetched_at": "2026-10-02T15:45:05.705008+00:00"
      }
    },
    {
      "type": "Feature",
      "geometry": {
        "type": "Point",
        "coordinates": [
          30.0,
          30.0
        ]
      },
      "properties": {
        "temp_c": 27.4,
        "rh_pct": 31,
        "wind_kmh": 10.7,
        "wind_dir_deg": 284,
        "rain_mm": 0.0,
        "fetched_at": "2026-10-02T15:45:05.705039+00:00"
      }
    },
    {
      "type": "Feature",
      "geometry": {
        "type": "Point",
        "coordinates": [
          40.0,
          30.0
        ]
      },
      "properties": {
        "temp_c": 28.3,
        "rh_pct": 24,
        "wind_kmh": 9.0,
        "wind_dir_deg": 299,
        "rain_mm": 0.0,
        "fetched_at": "2026-10-02T15:45:05.705069+00:00"
      }
    },
    {
      "type": "Feature",
      "geometry": {
        "type": "Point",
        "coordinates": [
          60.0,
          30.0
        ]
      },
      "properties": {
        "temp_c": 27.4,
        "rh_pct": 16,
        "wind_kmh": 10.6,
        "wind_dir_deg": 24,
        "rain_mm": 0.0,
        "fetched_at": "2026-10-02T15:45:05.705104+00:00"
      }
    },
    {
      "type": "Feature",
      "geometry": {
        "type": "Point",
        "coordinates": [
          70.0,
          30.0
        ]
      },
      "properties": {
        "temp_c": 20.9,
        "rh_pct": 50,
        "wind_kmh": 5.3,
        "wind_dir_deg": 225,
        "rain_mm": 0.0,
        "fetched_at": "2026-10-02T15:45:05.705137+00:00"
      }
    },
    {
      "type": "Feature",
      "geometry": {
        "type": "Point",
        "coordinates": [
          80.0,
          30.0
        ]
      },
      "properties": {
        "temp_c": 14.5,
        "rh_pct": 75,
        "wind_kmh": 1.4,
        "wind_dir_deg": 360,
        "rain_mm": 0.0,
        "fetched_at": "2026-10-02T15:45:05.705169+00:00"
      }
    },
    {
      "type": "Feature",
      "geometry": {
        "type": "Point",
        "coordinates": [
          90.0,
          30.0
        ]
      },
      "properties": {
        "temp_c": -2.2,
        "rh_pct": 44,
        "wind_kmh": 2.9,
        "wind_dir_deg": 173,
        "rain_mm": 0.0,
        "fetched_at": "2026-10-02T15:45:05.705202+00:00"
      }
    },
    {
      "type": "Feature",
      "geometry": {
        "type": "Point",
        "coordinates": [
          100.0,
          30.0
        ]
      },
      "properties": {
        "temp_c": 0.8,
        "rh_pct": 88,
        "wind_kmh": 5.6,
        "wind_dir_deg": 202,
        "rain_mm": 0.0,
        "fetched_at": "2026-10-02T15:45:05.705233+00:00"
      }
    },
    {
      "type": "Feature",
      "geometry": {
        "type": "Point",
        "coordinates": [
          110.0,
          30.0
        ]
      },
      "properties": {
        "temp_c": 15.3,
        "rh_pct": 99,
        "wind_kmh": 1.9,
        "wind_dir_deg": 197,
        "rain_mm": 0.1,
        "fetched_at": "2026-10-02T15:45:05.705265+00:00"
      }
    },
    {
      "type": "Feature",
      "geometry": {
        "type": "Point",
        "coordinates": [
          120.0,
          30.0
        ]
      },
      "properties": {
        "temp_c": 19.8,
        "rh_pct": 89,
        "wind_kmh": 6.3,
        "wind_dir_deg": 51,
        "rain_mm": 0.0,
        "fetched_at": "2026-10-02T15:45:05.705298+00:00"
      }
    },
    {
      "type": "Feature",
      "geometry": {
        "type": "Point",
        "coordinates": [
          -120.0,
          40.0
        ]
      },
      "properties": {
        "temp_c": 16.5,
        "rh_pct": 20,
        "wind_kmh": 14.6,
        "wind_dir_deg": 128,
        "rain_mm": 0.0,
        "fetched_at": "2026-10-02T15:45:05.705329+00:00"
      }
    },
    {
      "type": "Feature",
      "geometry": {
        "type": "Point",
        "coordinates": [
          -110.0,
          40.0
        ]
      },
      "properties": {
        "temp_c": 13.1,
        "rh_pct": 65,
        "wind_kmh": 6.3,
        "wind_dir_deg": 339,
        "rain_mm": 0.0,
        "fetched_at": "2026-10-02T15:45:05.705359+00:00"
      }
    },
    {
      "type": "Feature",
      "geometry": {
        "type": "Point",
        "coordinates": [
          -100.0,
          40.0
        ]
      },
      "properties": {
        "temp_c": 12.1,
        "rh_pct": 66,
        "wind_kmh": 6.9,
        "wind_dir_deg": 94,
        "rain_mm": 0.0,
        "fetched_at": "2026-10-02T15:45:05.705392+00:00"
      }
    },
    {
      "type": "Feature",
      "geometry": {
        "type": "Point",
        "coordinates": [
          -90.0,
          40.0
        ]
      },
      "properties": {
        "temp_c": 16.5,
        "rh_pct": 68,
        "wind_kmh": 18.1,
        "wind_dir_deg": 28,
        "rain_mm": 0.0,
        "fetched_at": "2026-10-02T15:45:05.705424+00:00"
      }
    },
    {
      "type": "Feature",
      "geometry": {
        "type": "Point",
        "coordinates": [
          -80.0,
          40.0
        ]
      },
      "properties": {
        "temp_c": 24.7,
        "rh_pct": 59,
        "wind_kmh": 20.1,
        "wind_dir_deg": 254,
        "rain_mm": 0.0,
        "fetched_at": "2026-10-02T15:45:05.705454+00:00"
      }
    },
    {
      "type": "Feature",
      "geometry": {
        "type": "Point",
        "coordinates": [
          0.0,
          40.0
        ]
      },
      "properties": {
        "temp_c": 22.4,
        "rh_pct": 84,
        "wind_kmh": 12.4,
        "wind_dir_deg": 54,
        "rain_mm": 0.1,
        "fetched_at": "2026-10-02T15:45:05.705486+00:00"
      }
    },
    {
      "type": "Feature",
      "geometry": {
        "type": "Point",
        "coordinates": [
          20.0,
          40.0
        ]
      },
      "properties": {
        "temp_c": 21.9,
        "rh_pct": 43,
        "wind_kmh": 6.8,
        "wind_dir_deg": 267,
        "rain_mm": 0.0,
        "fetched_at": "2026-10-02T15:45:05.705520+00:00"
      }
    },
    {
      "type": "Feature",
      "geometry": {
        "type": "Point",
        "coordinates": [
          30.0,
          40.0
        ]
      },
      "properties": {
        "temp_c": 12.5,
        "rh_pct": 89,
        "wind_kmh": 13.8,
        "wind_dir_deg": 6,
        "rain_mm": 0.0,
        "fetched_at": "2026-10-02T15:45:05.705551+00:00"
      }
    },
    {
      "type": "Feature",
      "geometry": {
        "type": "Point",
        "coordinates": [
          40.0,
          40.0
        ]
      },
      "properties": {
        "temp_c": 8.1,
        "rh_pct": 78,
        "wind_kmh": 9.7,
        "wind_dir_deg": 333,
        "rain_mm": 0.0,
        "fetched_at": "2026-10-02T15:45:05.705580+00:00"
      }
    },
    {
      "type": "Feature",
      "geometry": {
        "type": "Point",
        "coordinates": [
          60.0,
          40.0
        ]
      },
      "properties": {
        "temp_c": 27.0,
        "rh_pct": 30,
        "wind_kmh": 13.4,
        "wind_dir_deg": 117,
        "rain_mm": 0.0,
        "fetched_at": "2026-10-02T15:45:05.705614+00:00"
      }
    },
    {
      "type": "Feature",
      "geometry": {
        "type": "Point",
        "coordinates": [
          70.0,
          40.0
        ]
      },
      "properties": {
        "temp_c": 13.2,
        "rh_pct": 74,
        "wind_kmh": 5.9,
        "wind_dir_deg": 79,
        "rain_mm": 0.0,
        "fetched_at": "2026-10-02T15:45:05.705644+00:00"
      }
    },
    {
      "type": "Feature",
      "geometry": {
        "type": "Point",
        "coordinates": [
          80.0,
          40.0
        ]
      },
      "properties": {
        "temp_c": 19.5,
        "rh_pct": 32,
        "wind_kmh": 4.7,
        "wind_dir_deg": 16,
        "rain_mm": 0.0,
        "fetched_at": "2026-10-02T15:45:05.705674+00:00"
      }
    },
    {
      "type": "Feature",
      "geometry": {
        "type": "Point",
        "coordinates": [
          90.0,
          40.0
        ]
      },
      "properties": {
        "temp_c": 21.1,
        "rh_pct": 19,
        "wind_kmh": 19.3,
        "wind_dir_deg": 53,
        "rain_mm": 0.0,
        "fetched_at": "2026-10-02T15:45:05.705706+00:00"
      }
    },
    {
      "type": "Feature",
      "geometry": {
        "type": "Point",
        "coordinates": [
          100.0,
          40.0
        ]
      },
      "properties": {
        "temp_c": 12.5,
        "rh_pct": 17,
        "wind_kmh": 17.0,
        "wind_dir_deg": 350,
        "rain_mm": 0.0,
        "fetched_at": "2026-10-02T15:45:05.705737+00:00"
      }
    },
    {
      "type": "Feature",
      "geometry": {
        "type": "Point",
        "coordinates": [
          110.0,
          40.0
        ]
      },
      "properties": {
        "temp_c": 12.0,
        "rh_pct": 53,
        "wind_kmh": 36.6,
        "wind_dir_deg": 197,
        "rain_mm": 0.0,
        "fetched_at": "2026-10-02T15:45:05.705767+00:00"
      }
    },
    {
      "type": "Feature",
      "geometry": {
        "type": "Point",
        "coordinates": [
          140.0,
          40.0
        ]
      },
      "properties": {
        "temp_c": 17.3,
        "rh_pct": 64,
        "wind_kmh": 22.8,
        "wind_dir_deg": 288,
        "rain_mm": 0.0,
        "fetched_at": "2026-10-02T15:45:05.705798+00:00"
      }
    },
    {
      "type": "Feature",
      "geometry": {
        "type": "Point",
        "coordinates": [
          -120.0,
          50.0
        ]
      },
      "properties": {
        "temp_c": 7.1,
        "rh_pct": 90,
        "wind_kmh": 1.5,
        "wind_dir_deg": 0,
        "rain_mm": 0.0,
        "fetched_at": "2026-10-02T15:45:05.705832+00:00"
      }
    },
    {
      "type": "Feature",
      "geometry": {
        "type": "Point",
        "coordinates": [
          -110.0,
          50.0
        ]
      },
      "properties": {
        "temp_c": 14.3,
        "rh_pct": 54,
        "wind_kmh": 8.7,
        "wind_dir_deg": 287,
        "rain_mm": 0.0,
        "fetched_at": "2026-10-02T15:45:05.705910+00:00"
      }
    },
    {
      "type": "Feature",
      "geometry": {
        "type": "Point",
        "coordinates": [
          -100.0,
          50.0
        ]
      },
      "properties": {
        "temp_c": 7.0,
        "rh_pct": 73,
        "wind_kmh": 9.5,
        "wind_dir_deg": 239,
        "rain_mm": 0.0,
        "fetched_at": "2026-10-02T15:45:05.705946+00:00"
      }
    },
    {
      "type": "Feature",
      "geometry": {
        "type": "Point",
        "coordinates": [
          -90.0,
          50.0
        ]
      },
      "properties": {
        "temp_c": 6.5,
        "rh_pct": 77,
        "wind_kmh": 17.9,
        "wind_dir_deg": 302,
        "rain_mm": 0.0,
        "fetched_at": "2026-10-02T15:45:05.705997+00:00"
      }
    },
    {
      "type": "Feature",
      "geometry": {
        "type": "Point",
        "coordinates": [
          -80.0,
          50.0
        ]
      },
      "properties": {
        "temp_c": 7.2,
        "rh_pct": 70,
        "wind_kmh": 15.5,
        "wind_dir_deg": 303,
        "rain_mm": 0.0,
        "fetched_at": "2026-10-02T15:45:05.706031+00:00"
      }
    },
    {
      "type": "Feature",
      "geometry": {
        "type": "Point",
        "coordinates": [
          -70.0,
          50.0
        ]
      },
      "properties": {
        "temp_c": 9.1,
        "rh_pct": 74,
        "wind_kmh": 18.3,
        "wind_dir_deg": 309,
        "rain_mm": 0.0,
        "fetched_at": "2026-10-02T15:45:05.706061+00:00"
      }
    },
    {
      "type": "Feature",
      "geometry": {
        "type": "Point",
        "coordinates": [
          10.0,
          50.0
        ]
      },
      "properties": {
        "temp_c": 19.1,
        "rh_pct": 59,
        "wind_kmh": 7.9,
        "wind_dir_deg": 47,
        "rain_mm": 0.0,
        "fetched_at": "2026-10-02T15:45:05.706094+00:00"
      }
    },
    {
      "type": "Feature",
      "geometry": {
        "type": "Point",
        "coordinates": [
          20.0,
          50.0
        ]
      },
      "properties": {
        "temp_c": 19.5,
        "rh_pct": 50,
        "wind_kmh": 6.8,
        "wind_dir_deg": 71,
        "rain_mm": 0.0,
        "fetched_at": "2026-10-02T15:45:05.706131+00:00"
      }
    },
    {
      "type": "Feature",
      "geometry": {
        "type": "Point",
        "coordinates": [
          30.0,
          50.0
        ]
      },
      "properties": {
        "temp_c": 12.0,
        "rh_pct": 53,
        "wind_kmh": 3.8,
        "wind_dir_deg": 17,
        "rain_mm": 0.0,
        "fetched_at": "2026-10-02T15:45:05.706163+00:00"
      }
    },
    {
      "type": "Feature",
      "geometry": {
        "type": "Point",
        "coordinates": [
          40.0,
          50.0
        ]
      },
      "properties": {
        "temp_c": 8.7,
        "rh_pct": 51,
        "wind_kmh": 6.3,
        "wind_dir_deg": 347,
        "rain_mm": 0.0,
        "fetched_at": "2026-10-02T15:45:05.706199+00:00"
      }
    },
    {
      "type": "Feature",
      "geometry": {
        "type": "Point",
        "coordinates": [
          50.0,
          50.0
        ]
      },
      "properties": {
        "temp_c": 8.9,
        "rh_pct": 53,
        "wind_kmh": 20.5,
        "wind_dir_deg": 2,
        "rain_mm": 0.0,
        "fetched_at": "2026-10-02T15:45:05.706231+00:00"
      }
    },
    {
      "type": "Feature",
      "geometry": {
        "type": "Point",
        "coordinates": [
          60.0,
          50.0
        ]
      },
      "properties": {
        "temp_c": 12.3,
        "rh_pct": 63,
        "wind_kmh": 19.3,
        "wind_dir_deg": 297,
        "rain_mm": 0.0,
        "fetched_at": "2026-10-02T15:45:05.706260+00:00"
      }
    },
    {
      "type": "Feature",
      "geometry": {
        "type": "Point",
        "coordinates": [
          70.0,
          50.0
        ]
      },
      "properties": {
        "temp_c": 11.8,
        "rh_pct": 56,
        "wind_kmh": 8.2,
        "wind_dir_deg": 213,
        "rain_mm": 0.0,
        "fetched_at": "2026-10-02T15:45:05.706293+00:00"
      }
    },
    {
      "type": "Feature",
      "geometry": {
        "type": "Point",
        "coordinates": [
          80.0,
          50.0
        ]
      },
      "properties": {
        "temp_c": 12.7,
        "rh_pct": 54,
        "wind_kmh": 15.5,
        "wind_dir_deg": 195,
        "rain_mm": 0.0,
        "fetched_at": "2026-10-02T15:45:05.706326+00:00"
      }
    },
    {
      "type": "Feature",
      "geometry": {
        "type": "Point",
        "coordinates": [
          90.0,
          50.0
        ]
      },
      "properties": {
        "temp_c": 0.6,
        "rh_pct": 54,
        "wind_kmh": 4.9,
        "wind_dir_deg": 358,
        "rain_mm": 0.0,
        "fetched_at": "2026-10-02T15:45:05.706360+00:00"
      }
    },
    {
      "type": "Feature",
      "geometry": {
        "type": "Point",
        "coordinates": [
          100.0,
          50.0
        ]
      },
      "properties": {
        "temp_c": -1.9,
        "rh_pct": 81,
        "wind_kmh": 2.9,
        "wind_dir_deg": 202,
        "rain_mm": 0.0,
        "fetched_at": "2026-10-02T15:45:05.706390+00:00"
      }
    },
    {
      "type": "Feature",
      "geometry": {
        "type": "Point",
        "coordinates": [
          110.0,
          50.0
        ]
      },
      "properties": {
        "temp_c": -1.6,
        "rh_pct": 88,
        "wind_kmh": 1.3,
        "wind_dir_deg": 360,
        "rain_mm": 0.0,
        "fetched_at": "2026-10-02T15:45:05.706424+00:00"
      }
    },
    {
      "type": "Feature",
      "geometry": {
        "type": "Point",
        "coordinates": [
          120.0,
          50.0
        ]
      },
      "properties": {
        "temp_c": 1.8,
        "rh_pct": 69,
        "wind_kmh": 5.5,
        "wind_dir_deg": 247,
        "rain_mm": 0.0,
        "fetched_at": "2026-10-02T15:45:05.706454+00:00"
      }
    },
    {
      "type": "Feature",
      "geometry": {
        "type": "Point",
        "coordinates": [
          130.0,
          50.0
        ]
      },
      "properties": {
        "temp_c": 2.7,
        "rh_pct": 80,
        "wind_kmh": 5.2,
        "wind_dir_deg": 304,
        "rain_mm": 0.0,
        "fetched_at": "2026-10-02T15:45:05.706484+00:00"
      }
    },
    {
      "type": "Feature",
      "geometry": {
        "type": "Point",
        "coordinates": [
          140.0,
          50.0
        ]
      },
      "properties": {
        "temp_c": 3.1,
        "rh_pct": 75,
        "wind_kmh": 10.6,
        "wind_dir_deg": 294,
        "rain_mm": 0.0,
        "fetched_at": "2026-10-02T15:45:05.706520+00:00"
      }
    },
    {
      "type": "Feature",
      "geometry": {
        "type": "Point",
        "coordinates": [
          -160.0,
          60.0
        ]
      },
      "properties": {
        "temp_c": -8.8,
        "rh_pct": 82,
        "wind_kmh": 2.9,
        "wind_dir_deg": 60,
        "rain_mm": 0.0,
        "fetched_at": "2026-10-02T15:45:05.706552+00:00"
      }
    },
    {
      "type": "Feature",
      "geometry": {
        "type": "Point",
        "coordinates": [
          -150.0,
          60.0
        ]
      },
      "properties": {
        "temp_c": -7.6,
        "rh_pct": 72,
        "wind_kmh": 1.5,
        "wind_dir_deg": 240,
        "rain_mm": 0.0,
        "fetched_at": "2026-10-02T15:45:05.706583+00:00"
      }
    },
    {
      "type": "Feature",
      "geometry": {
        "type": "Point",
        "coordinates": [
          -140.0,
          60.0
        ]
      },
      "properties": {
        "temp_c": -3.4,
        "rh_pct": 79,
        "wind_kmh": 8.3,
        "wind_dir_deg": 359,
        "rain_mm": 0.0,
        "fetched_at": "2026-10-02T15:45:05.706617+00:00"
      }
    },
    {
      "type": "Feature",
      "geometry": {
        "type": "Point",
        "coordinates": [
          -130.0,
          60.0
        ]
      },
      "properties": {
        "temp_c": -1.0,
        "rh_pct": 92,
        "wind_kmh": 9.3,
        "wind_dir_deg": 212,
        "rain_mm": 0.0,
        "fetched_at": "2026-10-02T15:45:05.706914+00:00"
      }
    },
    {
      "type": "Feature",
      "geometry": {
        "type": "Point",
        "coordinates": [
          -120.0,
          60.0
        ]
      },
      "properties": {
        "temp_c": 1.3,
        "rh_pct": 87,
        "wind_kmh": 9.6,
        "wind_dir_deg": 227,
        "rain_mm": 0.0,
        "fetched_at": "2026-10-02T15:45:05.706949+00:00"
      }
    },
    {
      "type": "Feature",
      "geometry": {
        "type": "Point",
        "coordinates": [
          -110.0,
          60.0
        ]
      },
      "properties": {
        "temp_c": 4.0,
        "rh_pct": 99,
        "wind_kmh": 8.9,
        "wind_dir_deg": 174,
        "rain_mm": 0.0,
        "fetched_at": "2026-10-02T15:45:05.706981+00:00"
      }
    },
    {
      "type": "Feature",
      "geometry": {
        "type": "Point",
        "coordinates": [
          -100.0,
          60.0
        ]
      },
      "properties": {
        "temp_c": 3.9,
        "rh_pct": 76,
        "wind_kmh": 18.9,
        "wind_dir_deg": 300,
        "rain_mm": 0.0,
        "fetched_at": "2026-10-02T15:45:05.707015+00:00"
      }
    },
    {
      "type": "Feature",
      "geometry": {
        "type": "Point",
        "coordinates": [
          -70.0,
          60.0
        ]
      },
      "properties": {
        "temp_c": 7.0,
        "rh_pct": 69,
        "wind_kmh": 41.2,
        "wind_dir_deg": 268,
        "rain_mm": 0.0,
        "fetched_at": "2026-10-02T15:45:05.707050+00:00"
      }
    },
    {
      "type": "Feature",
      "geometry": {
        "type": "Point",
        "coordinates": [
          10.0,
          60.0
        ]
      },
      "properties": {
        "temp_c": 14.9,
        "rh_pct": 89,
        "wind_kmh": 6.1,
        "wind_dir_deg": 29,
        "rain_mm": 0.0,
        "fetched_at": "2026-10-02T15:45:05.707081+00:00"
      }
    },
    {
      "type": "Feature",
      "geometry": {
        "type": "Point",
        "coordinates": [
          30.0,
          60.0
        ]
      },
      "properties": {
        "temp_c": 11.5,
        "rh_pct": 94,
        "wind_kmh": 17.6,
        "wind_dir_deg": 281,
        "rain_mm": 0.0,
        "fetched_at": "2026-10-02T15:45:05.707113+00:00"
      }
    },
    {
      "type": "Feature",
      "geometry": {
        "type": "Point",
        "coordinates": [
          40.0,
          60.0
        ]
      },
      "properties": {
        "temp_c": 7.1,
        "rh_pct": 87,
        "wind_kmh": 4.7,
        "wind_dir_deg": 4,
        "rain_mm": 0.0,
        "fetched_at": "2026-10-02T15:45:05.707145+00:00"
      }
    },
    {
      "type": "Feature",
      "geometry": {
        "type": "Point",
        "coordinates": [
          50.0,
          60.0
        ]
      },
      "properties": {
        "temp_c": 2.0,
        "rh_pct": 60,
        "wind_kmh": 7.3,
        "wind_dir_deg": 11,
        "rain_mm": 0.0,
        "fetched_at": "2026-10-02T15:45:05.707177+00:00"
      }
    },
    {
      "type": "Feature",
      "geometry": {
        "type": "Point",
        "coordinates": [
          60.0,
          60.0
        ]
      },
      "properties": {
        "temp_c": 0.0,
        "rh_pct": 95,
        "wind_kmh": 15.6,
        "wind_dir_deg": 8,
        "rain_mm": 0.3,
        "fetched_at": "2026-10-02T15:45:05.707211+00:00"
      }
    },
    {
      "type": "Feature",
      "geometry": {
        "type": "Point",
        "coordinates": [
          70.0,
          60.0
        ]
      },
      "properties": {
        "temp_c": 9.0,
        "rh_pct": 71,
        "wind_kmh": 9.4,
        "wind_dir_deg": 102,
        "rain_mm": 0.0,
        "fetched_at": "2026-10-02T15:45:05.707241+00:00"
      }
    },
    {
      "type": "Feature",
      "geometry": {
        "type": "Point",
        "coordinates": [
          80.0,
          60.0
        ]
      },
      "properties": {
        "temp_c": 6.1,
        "rh_pct": 87,
        "wind_kmh": 8.5,
        "wind_dir_deg": 97,
        "rain_mm": 0.0,
        "fetched_at": "2026-10-02T15:45:05.707270+00:00"
      }
    },
    {
      "type": "Feature",
      "geometry": {
        "type": "Point",
        "coordinates": [
          90.0,
          60.0
        ]
      },
      "properties": {
        "temp_c": 2.8,
        "rh_pct": 94,
        "wind_kmh": 10.2,
        "wind_dir_deg": 120,
        "rain_mm": 0.0,
        "fetched_at": "2026-10-02T15:45:05.707304+00:00"
      }
    },
    {
      "type": "Feature",
      "geometry": {
        "type": "Point",
        "coordinates": [
          100.0,
          60.0
        ]
      },
      "properties": {
        "temp_c": 0.3,
        "rh_pct": 91,
        "wind_kmh": 10.3,
        "wind_dir_deg": 235,
        "rain_mm": 0.0,
        "fetched_at": "2026-10-02T15:45:05.707334+00:00"
      }
    },
    {
      "type": "Feature",
      "geometry": {
        "type": "Point",
        "coordinates": [
          110.0,
          60.0
        ]
      },
      "properties": {
        "temp_c": 1.8,
        "rh_pct": 77,
        "wind_kmh": 15.8,
        "wind_dir_deg": 249,
        "rain_mm": 0.0,
        "fetched_at": "2026-10-02T15:45:05.707363+00:00"
      }
    },
    {
      "type": "Feature",
      "geometry": {
        "type": "Point",
        "coordinates": [
          120.0,
          60.0
        ]
      },
      "properties": {
        "temp_c": 2.6,
        "rh_pct": 67,
        "wind_kmh": 12.0,
        "wind_dir_deg": 238,
        "rain_mm": 0.0,
        "fetched_at": "2026-10-02T15:45:05.707393+00:00"
      }
    },
    {
      "type": "Feature",
      "geometry": {
        "type": "Point",
        "coordinates": [
          130.0,
          60.0
        ]
      },
      "properties": {
        "temp_c": 2.8,
        "rh_pct": 76,
        "wind_kmh": 14.6,
        "wind_dir_deg": 244,
        "rain_mm": 0.0,
        "fetched_at": "2026-10-02T15:45:05.707427+00:00"
      }
    },
    {
      "type": "Feature",
      "geometry": {
        "type": "Point",
        "coordinates": [
          140.0,
          60.0
        ]
      },
      "properties": {
        "temp_c": -7.0,
        "rh_pct": 84,
        "wind_kmh": 6.6,
        "wind_dir_deg": 313,
        "rain_mm": 0.0,
        "fetched_at": "2026-10-02T15:45:05.707458+00:00"
      }
    },
    {
      "type": "Feature",
      "geometry": {
        "type": "Point",
        "coordinates": [
          150.0,
          60.0
        ]
      },
      "properties": {
        "temp_c": -3.4,
        "rh_pct": 65,
        "wind_kmh": 8.5,
        "wind_dir_deg": 1,
        "rain_mm": 0.0,
        "fetched_at": "2026-10-02T15:45:05.707488+00:00"
      }
    },
    {
      "type": "Feature",
      "geometry": {
        "type": "Point",
        "coordinates": [
          -160.0,
          70.0
        ]
      },
      "properties": {
        "temp_c": -5.4,
        "rh_pct": 73,
        "wind_kmh": 10.0,
        "wind_dir_deg": 247,
        "rain_mm": 0.0,
        "fetched_at": "2026-10-02T15:45:05.707521+00:00"
      }
    },
    {
      "type": "Feature",
      "geometry": {
        "type": "Point",
        "coordinates": [
          -150.0,
          70.0
        ]
      },
      "properties": {
        "temp_c": -12.3,
        "rh_pct": 81,
        "wind_kmh": 26.7,
        "wind_dir_deg": 196,
        "rain_mm": 0.0,
        "fetched_at": "2026-10-02T15:45:05.707557+00:00"
      }
    },
    {
      "type": "Feature",
      "geometry": {
        "type": "Point",
        "coordinates": [
          -130.0,
          70.0
        ]
      },
      "properties": {
        "temp_c": 0.4,
        "rh_pct": 76,
        "wind_kmh": 13.2,
        "wind_dir_deg": 119,
        "rain_mm": 0.0,
        "fetched_at": "2026-10-02T15:45:05.707588+00:00"
      }
    },
    {
      "type": "Feature",
      "geometry": {
        "type": "Point",
        "coordinates": [
          -110.0,
          70.0
        ]
      },
      "properties": {
        "temp_c": -1.3,
        "rh_pct": 89,
        "wind_kmh": 15.7,
        "wind_dir_deg": 344,
        "rain_mm": 0.0,
        "fetched_at": "2026-10-02T15:45:05.707619+00:00"
      }
    },
    {
      "type": "Feature",
      "geometry": {
        "type": "Point",
        "coordinates": [
          -80.0,
          70.0
        ]
      },
      "properties": {
        "temp_c": -4.8,
        "rh_pct": 93,
        "wind_kmh": 20.2,
        "wind_dir_deg": 348,
        "rain_mm": 0.0,
        "fetched_at": "2026-10-02T15:45:05.707649+00:00"
      }
    },
    {
      "type": "Feature",
      "geometry": {
        "type": "Point",
        "coordinates": [
          -70.0,
          70.0
        ]
      },
      "properties": {
        "temp_c": -3.8,
        "rh_pct": 79,
        "wind_kmh": 2.8,
        "wind_dir_deg": 345,
        "rain_mm": 0.0,
        "fetched_at": "2026-10-02T15:45:05.707682+00:00"
      }
    },
    {
      "type": "Feature",
      "geometry": {
        "type": "Point",
        "coordinates": [
          -50.0,
          70.0
        ]
      },
      "properties": {
        "temp_c": -2.1,
        "rh_pct": 49,
        "wind_kmh": 32.7,
        "wind_dir_deg": 118,
        "rain_mm": 0.0,
        "fetched_at": "2026-10-02T15:45:05.707718+00:00"
      }
    },
    {
      "type": "Feature",
      "geometry": {
        "type": "Point",
        "coordinates": [
          -40.0,
          70.0
        ]
      },
      "properties": {
        "temp_c": -14.6,
        "rh_pct": 84,
        "wind_kmh": 27.4,
        "wind_dir_deg": 149,
        "rain_mm": 0.0,
        "fetched_at": "2026-10-02T15:45:05.707748+00:00"
      }
    },
    {
      "type": "Feature",
      "geometry": {
        "type": "Point",
        "coordinates": [
          -30.0,
          70.0
        ]
      },
      "properties": {
        "temp_c": -9.8,
        "rh_pct": 85,
        "wind_kmh": 3.1,
        "wind_dir_deg": 152,
        "rain_mm": 0.0,
        "fetched_at": "2026-10-02T15:45:05.707796+00:00"
      }
    },
    {
      "type": "Feature",
      "geometry": {
        "type": "Point",
        "coordinates": [
          30.0,
          70.0
        ]
      },
      "properties": {
        "temp_c": 9.8,
        "rh_pct": 85,
        "wind_kmh": 22.0,
        "wind_dir_deg": 248,
        "rain_mm": 0.0,
        "fetched_at": "2026-10-02T15:45:05.707832+00:00"
      }
    },
    {
      "type": "Feature",
      "geometry": {
        "type": "Point",
        "coordinates": [
          70.0,
          70.0
        ]
      },
      "properties": {
        "temp_c": -0.8,
        "rh_pct": 91,
        "wind_kmh": 11.2,
        "wind_dir_deg": 292,
        "rain_mm": 0.0,
        "fetched_at": "2026-10-02T15:45:05.707879+00:00"
      }
    },
    {
      "type": "Feature",
      "geometry": {
        "type": "Point",
        "coordinates": [
          80.0,
          70.0
        ]
      },
      "properties": {
        "temp_c": -0.5,
        "rh_pct": 83,
        "wind_kmh": 20.6,
        "wind_dir_deg": 289,
        "rain_mm": 0.0,
        "fetched_at": "2026-10-02T15:45:05.707910+00:00"
      }
    },
    {
      "type": "Feature",
      "geometry": {
        "type": "Point",
        "coordinates": [
          90.0,
          70.0
        ]
      },
      "properties": {
        "temp_c": -4.8,
        "rh_pct": 97,
        "wind_kmh": 15.2,
        "wind_dir_deg": 265,
        "rain_mm": 0.1,
        "fetched_at": "2026-10-02T15:45:05.707939+00:00"
      }
    },
    {
      "type": "Feature",
      "geometry": {
        "type": "Point",
        "coordinates": [
          100.0,
          70.0
        ]
      },
      "properties": {
        "temp_c": -4.9,
        "rh_pct": 76,
        "wind_kmh": 27.0,
        "wind_dir_deg": 293,
        "rain_mm": 0.0,
        "fetched_at": "2026-10-02T15:45:05.707974+00:00"
      }
    },
    {
      "type": "Feature",
      "geometry": {
        "type": "Point",
        "coordinates": [
          110.0,
          70.0
        ]
      },
      "properties": {
        "temp_c": -5.6,
        "rh_pct": 75,
        "wind_kmh": 29.1,
        "wind_dir_deg": 282,
        "rain_mm": 0.1,
        "fetched_at": "2026-10-02T15:45:05.708006+00:00"
      }
    },
    {
      "type": "Feature",
      "geometry": {
        "type": "Point",
        "coordinates": [
          120.0,
          70.0
        ]
      },
      "properties": {
        "temp_c": -3.8,
        "rh_pct": 75,
        "wind_kmh": 14.2,
        "wind_dir_deg": 248,
        "rain_mm": 0.0,
        "fetched_at": "2026-10-02T15:45:05.708035+00:00"
      }
    },
    {
      "type": "Feature",
      "geometry": {
        "type": "Point",
        "coordinates": [
          130.0,
          70.0
        ]
      },
      "properties": {
        "temp_c": -1.1,
        "rh_pct": 82,
        "wind_kmh": 26.8,
        "wind_dir_deg": 293,
        "rain_mm": 0.1,
        "fetched_at": "2026-10-02T15:45:05.708065+00:00"
      }
    },
    {
      "type": "Feature",
      "geometry": {
        "type": "Point",
        "coordinates": [
          140.0,
          70.0
        ]
      },
      "properties": {
        "temp_c": 1.8,
        "rh_pct": 73,
        "wind_kmh": 31.9,
        "wind_dir_deg": 211,
        "rain_mm": 0.0,
        "fetched_at": "2026-10-02T15:45:05.708095+00:00"
      }
    },
    {
      "type": "Feature",
      "geometry": {
        "type": "Point",
        "coordinates": [
          150.0,
          70.0
        ]
      },
      "properties": {
        "temp_c": -2.8,
        "rh_pct": 97,
        "wind_kmh": 20.5,
        "wind_dir_deg": 167,
        "rain_mm": 0.0,
        "fetched_at": "2026-10-02T15:45:05.708125+00:00"
      }
    }
  ]
}